<?xml version="1.0" encoding="UTF-8"?>
<kml xmlns="http://www.opengis.net/kml/2.2">
<Document>
    <name>Tramos - Línea Roja (Circuito Cerrado)</name>

    <Style id="lineaRoja">
        <LineStyle>
            <color>ff0000ff</color> <!-- rojo -->
            <width>3</width>
        </LineStyle>
    </Style>

    <Placemark>
        <name>Ruta completa</name>
        <styleUrl>#lineaRoja</styleUrl>
        <LineString>
            <tessellate>1</tessellate>
            <altitudeMode>clampToGround</altitudeMode>
            <coordinates>
51.45275035532733,25.48412347985424,0
51.45329068603851,25.48379988766239,0
51.45376210297766,25.4840703464576,0
51.45551799130361,25.48714078286195,0
51.45600739332009,25.48734189327791,0
51.45861589856321,25.48687499910984,0
51.45908622747559,25.4870408245405,0
51.4598665541052,25.4885349910928,0
51.45995752364238,25.48870484701892,0
51.45924383251973,25.48981854803052,0
51.45869063995323,25.49002431589926,0
51.45588158841028,25.48978709616726,0
51.45500894644589,25.48997320807358,0
51.45360210333502,25.49092687447989,0
51.45356645647286,25.49126358382133,0
51.45385706029898,25.49149379360832,0
51.45537658386909,25.49184740658584,0
51.45572464833729,25.49225429108223,0
51.45599429316892,25.49312037370886,0
51.45683227081981,25.49398151753568,0
51.45696348017407,25.49439181747378,0
51.45687239305878,25.49463833740495,0
51.45635401508707,25.49486874406796,0
51.4534964027382,25.49389123813548,0
51.45314242987898,25.49397949737732,0
51.45313356217201,25.49429706154168,0
51.45466832085334,25.49583532215224,0
51.45473420440899,25.49622312032453,0
51.45461103173562,25.49646267976565,0
51.45406257103425,25.49700502379971,0
51.45359777613856,25.49712916620226,0
51.45330682717989,25.49705077360019,0
51.45092984824004,25.49476421378516,0
51.45079667243421,25.4945218287892,0
51.45070101917132,25.49425791832254,0
51.4507208970088,25.49299037372587,0
51.4506681680289,25.49273001714513,0
51.45038508218155,25.4925039724525,0
51.44999174948779,25.49246802355267,0
51.4483673231882,25.49333582558804,0
51.44781851410846,25.49331364641662,0
51.44756489665436,25.49305327396387,0
51.44750362112923,25.49270016308279,0
51.44953333968715,25.48928989802003,0
51.45275035532733,25.48412347985424,0
            </coordinates>
        </LineString>
    </Placemark>

</Document>
</kml>
